{"type": "FeatureCollection", "features": [ {"type": "Feature", "properties": {"norad_id": 66499, "name": "STARLINK-35816", "group": "last-30-days", "lat": 39.626851629248385, "lon": -123.18369986792453, "alt_km": 360.8835939491073, "timestamp": "2025-12-04T09:47:36.302387+00:00", "meta": {"OBJECT_NAME": "STARLINK-35816", "OBJECT_ID": "2025-263Q", "EPOCH": "2025-12-04T04:00:03.000096", "MEAN_MOTION": 15.68549111, "ECCENTRICITY": 0.0001467, "INCLINATION": 42.9991, "RA_OF_ASC_NODE": 175.5604, "ARG_OF_PERICENTER": 275.4024, "MEAN_ANOMALY": 229.8438, "EPHEMERIS_TYPE": 0, "CLASSIFICATION_TYPE": "U", "NORAD_CAT_ID": 66499, "ELEMENT_SET_NO": 999, "REV_AT_EPOCH": 425, "BSTAR": -0.019165, "MEAN_MOTION_DOT": -0.01973275, "MEAN_MOTION_DDOT": 0}, "tle": {"line1": "1 66499U 25263Q   25338.16670139 -.01973275  00000+0 -19165-1 0  9994", "line2": "2 66499  42.9991 175.5604 0001467 275.4024 229.8438 15.68549111  4258"}}, "geometry": {"type": "Point", "coordinates": [-123.18369986792453, 39.626851629248385]}}, {"type": "Feature", "properties": {"norad_id": 66500, "name": "STARLINK-35894", "group": "last-30-days", "lat": 37.255035827093685, "lon": -131.1648835217627, "alt_km": 366.10962813832157, "timestamp": "2025-12-04T09:47:36.302399+00:00", "meta": {"OBJECT_NAME": "STARLINK-35894", "OBJECT_ID": "2025-263R", "EPOCH": "2025-12-04T04:00:03.000096", "MEAN_MOTION": 15.67128423, "ECCENTRICITY": 0.0001363, "INCLINATION": 42.9992, "RA_OF_ASC_NODE": 175.5739, "ARG_OF_PERICENTER": 273.981, "MEAN_ANOMALY": 225.9407, "EPHEMERIS_TYPE": 0, "CLASSIFICATION_TYPE": "U", "NORAD_CAT_ID": 66500, "ELEMENT_SET_NO": 999, "REV_AT_EPOCH": 425, "BSTAR": -0.025934, "MEAN_MOTION_DOT": -0.02492463, "MEAN_MOTION_DDOT": 0}, "tle": {"line1": "1 66500U 25263R   25338.16670139 -.02492463  00000+0 -25934-1 0  9994", "line2": "2 66500  42.9992 175.5739 0001363 273.9810 225.9407 15.67128423  4253"}}, "geometry": {"type": "Point", "coordinates": [-131.1648835217627, 37.255035827093685]}}, {"type": "Feature", "properties": {"norad_id": 66501, "name": "STARLINK-35897", "group": "last-30-days", "lat": 40.20264002021604, "lon": -120.80173426650697, "alt_km": 360.8023183843625, "timestamp": "2025-12-04T09:47:36.302409+00:00", "meta": {"OBJECT_NAME": "STARLINK-35897", "OBJECT_ID": "2025-263S", "EPOCH": "2025-12-04T04:00:03.000096", "MEAN_MOTION": 15.68545012, "ECCENTRICITY": 0.0001428, "INCLINATION": 42.9993, "RA_OF_ASC_NODE": 175.5555, "ARG_OF_PERICENTER": 274.1728, "MEAN_ANOMALY": 232.9935, "EPHEMERIS_TYPE": 0, "CLASSIFICATION_TYPE": "U", "NORAD_CAT_ID": 66501, "ELEMENT_SET_NO": 999, "REV_AT_EPOCH": 425, "BSTAR": -0.019121, "MEAN_MOTION_DOT": -0.01968989, "MEAN_MOTION_DDOT": 0}, "tle": {"line1": "1 66501U 25263S   25338.16670139 -.01968989  00000+0 -19121-1 0  9996", "line2": "2 66501  42.9993 175.5555 0001428 274.1728 232.9935 15.68545012  4256"}}, "geometry": {"type": "Point", "coordinates": [-120.80173426650697, 40.20264002021604]}}, {"type": "Feature", "properties": {"norad_id": 66502, "name": "STARLINK-35922", "group": "last-30-days", "lat": 41.62484169334862, "lon": -113.42222862436847, "alt_km": 360.75996924033734, "timestamp": "2025-12-04T09:47:36.302422+00:00", "meta": {"OBJECT_NAME": "STARLINK-35922", "OBJECT_ID": "2025-263T", "EPOCH": "2025-12-04T04:00:03.000096", "MEAN_MOTION": 15.68540198, "ECCENTRICITY": 0.0001602, "INCLINATION": 42.9991, "RA_OF_ASC_NODE": 175.5405, "ARG_OF_PERICENTER": 274.0347, "MEAN_ANOMALY": 238.8941, "EPHEMERIS_TYPE": 0, "CLASSIFICATION_TYPE": "U", "NORAD_CAT_ID": 66502, "ELEMENT_SET_NO": 999, "REV_AT_EPOCH": 425, "BSTAR": -0.019165, "MEAN_MOTION_DOT": -0.0197272, "MEAN_MOTION_DDOT": 0}, "tle": {"line1": "1 66502U 25263T   25338.16670139 -.01972720  00000+0 -19165-1 0  9993", "line2": "2 66502  42.9991 175.5405 0001602 274.0347 238.8941 15.68540198  4251"}}, "geometry": {"type": "Point", "coordinates": [-113.42222862436847, 41.62484169334862]}}, {"type": "Feature", "properties": {"norad_id": 66503, "name": "STARLINK-35917", "group": "last-30-days", "lat": 42.29970615537234, "lon": -108.36100046535931, "alt_km": 360.47556310610616, "timestamp": "2025-12-04T09:47:36.302432+00:00", "meta": {"OBJECT_NAME": "STARLINK-35917", "OBJECT_ID": "2025-263U", "EPOCH": "2025-12-03T22:00:03.000096", "MEAN_MOTION": 15.69577615, "ECCENTRICITY": 0.00012523, "INCLINATION": 42.9992, "RA_OF_ASC_NODE": 177.0362, "ARG_OF_PERICENTER": 273.8246, "MEAN_ANOMALY": 269.0733, "EPHEMERIS_TYPE": 0, "CLASSIFICATION_TYPE": "U", "NORAD_CAT_ID": 66503, "ELEMENT_SET_NO": 999, "REV_AT_EPOCH": 421, "BSTAR": -0.017991343, "MEAN_MOTION_DOT": -0.01938256, "MEAN_MOTION_DDOT": 0}, "tle": {"line1": "1 66503U 25263U   25337.91670139 -.01938256  00000+0 -17991-1 0  9997", "line2": "2 66503  42.9992 177.0362 0001252 273.8246 269.0733 15.69577615  4214"}}, "geometry": {"type": "Point", "coordinates": [-108.36100046535931, 42.29970615537234]}}, {"type": "Feature", "properties": {"norad_id": 66504, "name": "STARLINK-35916", "group": "last-30-days", "lat": 6.712395843165121, "lon": -12.504718527312221, "alt_km": 414.40366741865273, "timestamp": "2025-12-04T09:47:36.302444+00:00", "meta": {"OBJECT_NAME": "STARLINK-35916", "OBJECT_ID": "2025-263V", "EPOCH": "2025-12-04T04:00:03.000096", "MEAN_MOTION": 15.50596003, "ECCENTRICITY": 0.0002342, "INCLINATION": 42.9987, "RA_OF_ASC_NODE": 176.1636, "ARG_OF_PERICENTER": 278.5513, "MEAN_ANOMALY": 342.6116, "EPHEMERIS_TYPE": 0, "CLASSIFICATION_TYPE": "U", "NORAD_CAT_ID": 66504, "ELEMENT_SET_NO": 999, "REV_AT_EPOCH": 425, "BSTAR": -0.00019543, "MEAN_MOTION_DOT": -0.00011798, "MEAN_MOTION_DDOT": 0}, "tle": {"line1": "1 66504U 25263V   25338.16670139 -.00011798  00000+0 -19543-3 0  9995", "line2": "2 66504  42.9987 176.1636 0002342 278.5513 342.6116 15.50596003  4252"}}, "geometry": {"type": "Point", "coordinates": [-12.504718527312221, 6.712395843165121]}}, {"type": "Feature", "properties": {"norad_id": 66505, "name": "STARLINK-34766", "group": "last-30-days", "lat": 40.72762496995362, "lon": -118.38440244669691, "alt_km": 360.69105796038184, "timestamp": "2025-12-04T09:47:36.302454+00:00", "meta": {"OBJECT_NAME": "STARLINK-34766", "OBJECT_ID": "2025-263W", "EPOCH": "2025-12-04T04:00:03.000096", "MEAN_MOTION": 15.68556352, "ECCENTRICITY": 0.0001338, "INCLINATION": 42.9992, "RA_OF_ASC_NODE": 175.5502, "ARG_OF_PERICENTER": 271.1541, "MEAN_ANOMALY": 237.9211, "EPHEMERIS_TYPE": 0, "CLASSIFICATION_TYPE": "U", "NORAD_CAT_ID": 66505, "ELEMENT_SET_NO": 999, "REV_AT_EPOCH": 425, "BSTAR": -0.019243, "MEAN_MOTION_DOT": -0.01980828, "MEAN_MOTION_DDOT": 0}, "tle": {"line1": "1 66505U 25263W   25338.16670139 -.01980828  00000+0 -19243-1 0  9991", "line2": "2 66505  42.9992 175.5502 0001338 271.1541 237.9211 15.68556352  4252"}}, "geometry": {"type": "Point", "coordinates": [-118.38440244669691, 40.72762496995362]}}, {"type": "Feature", "properties": {"norad_id": 66506, "name": "STARLINK-34765", "group": "last-30-days", "lat": 41.201485498632906, "lon": -115.92809501808559, "alt_km": 360.6852213786751, "timestamp": "2025-12-04T09:47:36.302464+00:00", "meta": {"OBJECT_NAME": "STARLINK-34765", "OBJECT_ID": "2025-263X", "EPOCH": "2025-12-04T04:00:03.000096", "MEAN_MOTION": 15.68556184, "ECCENTRICITY": 0.0001393, "INCLINATION": 42.9992, "RA_OF_ASC_NODE": 175.5461, "ARG_OF_PERICENTER": 267.8151, "MEAN_ANOMALY": 243.1763, "EPHEMERIS_TYPE": 0, "CLASSIFICATION_TYPE": "U", "NORAD_CAT_ID": 66506, "ELEMENT_SET_NO": 999, "REV_AT_EPOCH": 425, "BSTAR": -0.019238, "MEAN_MOTION_DOT": -0.01980415, "MEAN_MOTION_DDOT": 0}, "tle": {"line1": "1 66506U 25263X   25338.16670139 -.01980415  00000+0 -19238-1 0  9998", "line2": "2 66506  42.9992 175.5461 0001393 267.8151 243.1763 15.68556184  4251"}}, "geometry": {"type": "Point", "coordinates": [-115.92809501808559, 41.201485498632906]}}, {"type": "Feature", "properties": {"norad_id": 66507, "name": "STARLINK-34767", "group": "last-30-days", "lat": 41.989518768630234, "lon": -110.91076318263924, "alt_km": 360.5977453258256, "timestamp": "2025-12-04T09:47:36.302474+00:00", "meta": {"OBJECT_NAME": "STARLINK-34767", "OBJECT_ID": "2025-263Y", "EPOCH": "2025-12-04T04:00:03.000096", "MEAN_MOTION": 15.68555535, "ECCENTRICITY": 0.0001467, "INCLINATION": 42.9991, "RA_OF_ASC_NODE": 175.5353, "ARG_OF_PERICENTER": 274.0493, "MEAN_ANOMALY": 240.7775, "EPHEMERIS_TYPE": 0, "CLASSIFICATION_TYPE": "U", "NORAD_CAT_ID": 66507, "ELEMENT_SET_NO": 999, "REV_AT_EPOCH": 425, "BSTAR": -0.019236, "MEAN_MOTION_DOT": -0.01980172, "MEAN_MOTION_DDOT": 0}, "tle": {"line1": "1 66507U 25263Y   25338.16670139 -.01980172  00000+0 -19236-1 0  9997", "line2": "2 66507  42.9991 175.5353 0001467 274.0493 240.7775 15.68555535  4257"}}, "geometry": {"type": "Point", "coordinates": [-110.91076318263924, 41.989518768630234]}}, {"type": "Feature", "properties": {"norad_id": 66508, "name": "STARLINK-35608", "group": "last-30-days", "lat": 42.74846221645292, "lon": -103.18692916352083, "alt_km": 360.6797315973381, "timestamp": "2025-12-04T09:47:36.302484+00:00", "meta": {"OBJECT_NAME": "STARLINK-35608", "OBJECT_ID": "2025-263Z", "EPOCH": "2025-12-04T04:00:03.000096", "MEAN_MOTION": 15.68492003, "ECCENTRICITY": 0.0001615, "INCLINATION": 42.9991, "RA_OF_ASC_NODE": 175.5215, "ARG_OF_PERICENTER": 272.0505, "MEAN_ANOMALY": 248.5735, "EPHEMERIS_TYPE": 0, "CLASSIFICATION_TYPE": "U", "NORAD_CAT_ID": 66508, "ELEMENT_SET_NO": 999, "REV_AT_EPOCH": 425, "BSTAR": -0.018559, "MEAN_MOTION_DOT": -0.01914112, "MEAN_MOTION_DDOT": 0}, "tle": {"line1": "1 66508U 25263Z   25338.16670139 -.01914112  00000+0 -18559-1 0  9996", "line2": "2 66508  42.9991 175.5215 0001615 272.0505 248.5735 15.68492003  4254"}}, "geometry": {"type": "Point", "coordinates": [-103.18692916352083, 42.74846221645292]}}]}